[{"OBJECT_NAME":"HULIANWANG DIGUI-97","OBJECT_ID":"2025-258B","EPOCH":"2026-03-05T15:24:13.310208","MEAN_MOTION":13.29332446,"ECCENTRICITY":4.214e-5,"INCLINATION":50.0017,"RA_OF_ASC_NODE":307.2661,"ARG_OF_PERICENTER":98.4413,"MEAN_ANOMALY":261.6507,"EPHEMERIS_TYPE":0,"CLASSIFICATION_TYPE":"U","NORAD_CAT_ID":66413,"ELEMENT_SET_NO":999,"REV_AT_EPOCH":1595,"BSTAR":0.00017201034,"MEAN_MOTION_DOT":-4.4e-7,"MEAN_MOTION_DDOT":0},{"OBJECT_NAME":"HULIANWANG DIGUI-98","OBJECT_ID":"2025-258C","EPOCH":"2026-03-05T13:23:53.839392","MEAN_MOTION":13.29334026,"ECCENTRICITY":4.769e-5,"INCLINATION":50.0054,"RA_OF_ASC_NODE":307.5343,"ARG_OF_PERICENTER":110.4114,"MEAN_ANOMALY":249.6809,"EPHEMERIS_TYPE":0,"CLASSIFICATION_TYPE":"U","NORAD_CAT_ID":66414,"ELEMENT_SET_NO":999,"REV_AT_EPOCH":1594,"BSTAR":0.0001761919,"MEAN_MOTION_DOT":-4.2e-7,"MEAN_MOTION_DDOT":0},{"OBJECT_NAME":"HULIANWANG DIGUI-99","OBJECT_ID":"2025-258D","EPOCH":"2026-03-05T14:24:04.789152","MEAN_MOTION":13.29331512,"ECCENTRICITY":3.588e-5,"INCLINATION":50.0052,"RA_OF_ASC_NODE":307.0852,"ARG_OF_PERICENTER":92.0681,"MEAN_ANOMALY":268.0233,"EPHEMERIS_TYPE":0,"CLASSIFICATION_TYPE":"U","NORAD_CAT_ID":66415,"ELEMENT_SET_NO":999,"REV_AT_EPOCH":1594,"BSTAR":0.00014710538,"MEAN_MOTION_DOT":-5.6e-7,"MEAN_MOTION_DDOT":0},{"OBJECT_NAME":"HULIANWANG DIGUI-100","OBJECT_ID":"2025-258E","EPOCH":"2026-03-05T15:00:08.003232","MEAN_MOTION":13.29334557,"ECCENTRICITY":3.436e-5,"INCLINATION":50.0056,"RA_OF_ASC_NODE":307.2235,"ARG_OF_PERICENTER":91.0227,"MEAN_ANOMALY":269.0685,"EPHEMERIS_TYPE":0,"CLASSIFICATION_TYPE":"U","NORAD_CAT_ID":66416,"ELEMENT_SET_NO":999,"REV_AT_EPOCH":1596,"BSTAR":0.00016841314,"MEAN_MOTION_DOT":-4.6e-7,"MEAN_MOTION_DDOT":0},{"OBJECT_NAME":"HULIANWANG DIGUI-101","OBJECT_ID":"2025-258F","EPOCH":"2026-03-05T14:48:07.450560","MEAN_MOTION":13.29332731,"ECCENTRICITY":3.748e-5,"INCLINATION":50.0006,"RA_OF_ASC_NODE":307.1214,"ARG_OF_PERICENTER":84.9757,"MEAN_ANOMALY":275.1158,"EPHEMERIS_TYPE":0,"CLASSIFICATION_TYPE":"U","NORAD_CAT_ID":66417,"ELEMENT_SET_NO":999,"REV_AT_EPOCH":1596,"BSTAR":0.00015561507,"MEAN_MOTION_DOT":-5.2e-7,"MEAN_MOTION_DDOT":0},{"OBJECT_NAME":"HULIANWANG DIGUI-102","OBJECT_ID":"2025-258G","EPOCH":"2026-03-05T16:00:15.039072","MEAN_MOTION":13.29334646,"ECCENTRICITY":3.866e-5,"INCLINATION":50.002,"RA_OF_ASC_NODE":306.7323,"ARG_OF_PERICENTER":104.7774,"MEAN_ANOMALY":255.3141,"EPHEMERIS_TYPE":0,"CLASSIFICATION_TYPE":"U","NORAD_CAT_ID":66418,"ELEMENT_SET_NO":999,"REV_AT_EPOCH":1596,"BSTAR":0.00016700865,"MEAN_MOTION_DOT":-4.7e-7,"MEAN_MOTION_DDOT":0},{"OBJECT_NAME":"HULIANWANG DIGUI-103","OBJECT_ID":"2025-258H","EPOCH":"2026-03-05T15:48:15.112800","MEAN_MOTION":13.29333653,"ECCENTRICITY":3.176e-5,"INCLINATION":50.0013,"RA_OF_ASC_NODE":306.6808,"ARG_OF_PERICENTER":86.8578,"MEAN_ANOMALY":273.233,"EPHEMERIS_TYPE":0,"CLASSIFICATION_TYPE":"U","NORAD_CAT_ID":66419,"ELEMENT_SET_NO":999,"REV_AT_EPOCH":1596,"BSTAR":0.00017110245,"MEAN_MOTION_DOT":-4.5e-7,"MEAN_MOTION_DDOT":0},{"OBJECT_NAME":"HULIANWANG DIGUI-104","OBJECT_ID":"2025-258J","EPOCH":"2026-03-05T13:47:59.192160","MEAN_MOTION":13.29333028,"ECCENTRICITY":4.018e-5,"INCLINATION":50.003,"RA_OF_ASC_NODE":306.9297,"ARG_OF_PERICENTER":108.2222,"MEAN_ANOMALY":251.8694,"EPHEMERIS_TYPE":0,"CLASSIFICATION_TYPE":"U","NORAD_CAT_ID":66420,"ELEMENT_SET_NO":999,"REV_AT_EPOCH":1594,"BSTAR":0.0001705898,"MEAN_MOTION_DOT":-4.5e-7,"MEAN_MOTION_DDOT":0},{"OBJECT_NAME":"HULIANWANG DIGUI-105","OBJECT_ID":"2025-285A","EPOCH":"2026-03-05T06:40:34.383936","MEAN_MOTION":13.29331626,"ECCENTRICITY":5.37e-6,"INCLINATION":50.0046,"RA_OF_ASC_NODE":158.8854,"ARG_OF_PERICENTER":333.9016,"MEAN_ANOMALY":26.1853,"EPHEMERIS_TYPE":0,"CLASSIFICATION_TYPE":"U","NORAD_CAT_ID":66915,"ELEMENT_SET_NO":999,"REV_AT_EPOCH":1223,"BSTAR":8.0203941e-5,"MEAN_MOTION_DOT":-8.7e-7,"MEAN_MOTION_DDOT":0},{"OBJECT_NAME":"HULIANWANG DIGUI-106","OBJECT_ID":"2025-285B","EPOCH":"2026-03-04T05:13:20.041248","MEAN_MOTION":13.29373542,"ECCENTRICITY":0.00067182,"INCLINATION":49.9908,"RA_OF_ASC_NODE":162.6187,"ARG_OF_PERICENTER":40.7121,"MEAN_ANOMALY":319.4252,"EPHEMERIS_TYPE":0,"CLASSIFICATION_TYPE":"U","NORAD_CAT_ID":66916,"ELEMENT_SET_NO":999,"REV_AT_EPOCH":1209,"BSTAR":-1.4013495,"MEAN_MOTION_DOT":-0.00623778,"MEAN_MOTION_DDOT":0},{"OBJECT_NAME":"HULIANWANG DIGUI-107","OBJECT_ID":"2025-285C","EPOCH":"2026-03-05T08:04:46.858944","MEAN_MOTION":13.29330895,"ECCENTRICITY":4.67e-6,"INCLINATION":50.0022,"RA_OF_ASC_NODE":158.511,"ARG_OF_PERICENTER":347.1437,"MEAN_ANOMALY":12.9434,"EPHEMERIS_TYPE":0,"CLASSIFICATION_TYPE":"U","NORAD_CAT_ID":66917,"ELEMENT_SET_NO":999,"REV_AT_EPOCH":1224,"BSTAR":4.8085581e-5,"MEAN_MOTION_DOT":-1.02e-6,"MEAN_MOTION_DDOT":0},{"OBJECT_NAME":"HULIANWANG DIGUI-108","OBJECT_ID":"2025-285D","EPOCH":"2026-03-05T11:29:15.388512","MEAN_MOTION":13.2933136,"ECCENTRICITY":1.88e-6,"INCLINATION":50.0044,"RA_OF_ASC_NODE":157.9452,"ARG_OF_PERICENTER":314.947,"MEAN_ANOMALY":45.14,"EPHEMERIS_TYPE":0,"CLASSIFICATION_TYPE":"U","NORAD_CAT_ID":66918,"ELEMENT_SET_NO":999,"REV_AT_EPOCH":1226,"BSTAR":8.6952486e-5,"MEAN_MOTION_DOT":-8.4e-7,"MEAN_MOTION_DDOT":0},{"OBJECT_NAME":"HULIANWANG DIGUI-109","OBJECT_ID":"2025-285E","EPOCH":"2026-03-05T14:53:44.732832","MEAN_MOTION":13.29331111,"ECCENTRICITY":5.55e-6,"INCLINATION":50.0067,"RA_OF_ASC_NODE":157.3825,"ARG_OF_PERICENTER":341.0521,"MEAN_ANOMALY":19.0349,"EPHEMERIS_TYPE":0,"CLASSIFICATION_TYPE":"U","NORAD_CAT_ID":66919,"ELEMENT_SET_NO":999,"REV_AT_EPOCH":1229,"BSTAR":0.00011872978,"MEAN_MOTION_DOT":-6.9e-7,"MEAN_MOTION_DDOT":0},{"OBJECT_NAME":"HULIANWANG DIGUI-110","OBJECT_ID":"2025-285F","EPOCH":"2026-03-05T07:28:41.511648","MEAN_MOTION":13.29330931,"ECCENTRICITY":1.53e-6,"INCLINATION":50.01,"RA_OF_ASC_NODE":158.4435,"ARG_OF_PERICENTER":44.2896,"MEAN_ANOMALY":315.7978,"EPHEMERIS_TYPE":0,"CLASSIFICATION_TYPE":"U","NORAD_CAT_ID":66920,"ELEMENT_SET_NO":999,"REV_AT_EPOCH":1224,"BSTAR":6.0998467e-5,"MEAN_MOTION_DOT":-9.6e-7,"MEAN_MOTION_DDOT":0},{"OBJECT_NAME":"HULIANWANG DIGUI-111","OBJECT_ID":"2025-285G","EPOCH":"2026-03-05T14:29:41.629056","MEAN_MOTION":13.2933058,"ECCENTRICITY":3.55e-6,"INCLINATION":50.0115,"RA_OF_ASC_NODE":157.3349,"ARG_OF_PERICENTER":310.7286,"MEAN_ANOMALY":49.3584,"EPHEMERIS_TYPE":0,"CLASSIFICATION_TYPE":"U","NORAD_CAT_ID":66921,"ELEMENT_SET_NO":999,"REV_AT_EPOCH":1228,"BSTAR":9.5760056e-5,"MEAN_MOTION_DOT":-8.0e-7,"MEAN_MOTION_DDOT":0},{"OBJECT_NAME":"HULIANWANG DIGUI-112","OBJECT_ID":"2025-285H","EPOCH":"2026-03-05T14:17:39.948864","MEAN_MOTION":13.29331085,"ECCENTRICITY":6.73e-6,"INCLINATION":50.0079,"RA_OF_ASC_NODE":157.2639,"ARG_OF_PERICENTER":306.9368,"MEAN_ANOMALY":53.1498,"EPHEMERIS_TYPE":0,"CLASSIFICATION_TYPE":"U","NORAD_CAT_ID":66922,"ELEMENT_SET_NO":999,"REV_AT_EPOCH":1228,"BSTAR":0.00016021229,"MEAN_MOTION_DOT":-5.0e-7,"MEAN_MOTION_DDOT":0}]
