HULIANWANG DIGUI-97     
1 66413U 25258B   26064.64182072 -.00000044  00000+0  17201-3 0  9992
2 66413  50.0017 307.2661 0000421  98.4413 261.6507 13.29332446 15950
HULIANWANG DIGUI-98     
1 66414U 25258C   26064.55826203 -.00000042  00000+0  17619-3 0  9995
2 66414  50.0054 307.5343 0000476 110.4114 249.6809 13.29334026 15941
HULIANWANG DIGUI-99     
1 66415U 25258D   26064.60005543 -.00000056  00000+0  14711-3 0  9993
2 66415  50.0052 307.0852 0000358  92.0681 268.0233 13.29331512 15946
HULIANWANG DIGUI-100    
1 66416U 25258E   26064.62509263 -.00000046  00000+0  16841-3 0  9999
2 66416  50.0056 307.2235 0000343  91.0227 269.0685 13.29334557 15963
HULIANWANG DIGUI-101    
1 66417U 25258F   26064.61675290 -.00000052  00000+0  15562-3 0  9999
2 66417  50.0006 307.1214 0000374  84.9757 275.1158 13.29332731 15963
HULIANWANG DIGUI-102    
1 66418U 25258G   26064.66684073 -.00000047  00000+0  16701-3 0  9994
2 66418  50.0020 306.7323 0000386 104.7774 255.3141 13.29334646 15968
HULIANWANG DIGUI-103    
1 66419U 25258H   26064.65850825 -.00000045  00000+0  17110-3 0  9997
2 66419  50.0013 306.6808 0000317  86.8578 273.2330 13.29333653 15960
HULIANWANG DIGUI-104    
1 66420U 25258J   26064.57499065 -.00000045  00000+0  17059-3 0  9997
2 66420  50.0030 306.9297 0000401 108.2222 251.8694 13.29333028 15944
HULIANWANG DIGUI-105    
1 66915U 25285A   26064.27817574 -.00000087  00000+0  80204-4 0  9991
2 66915  50.0046 158.8854 0000053 333.9016  26.1853 13.29331626 12235
HULIANWANG DIGUI-106    
1 66916U 25285B   26063.21759307 -.00623778  00000+0 -14013+1 0  9994
2 66916  49.9908 162.6187 0006718  40.7121 319.4252 13.29373542 12094
HULIANWANG DIGUI-107    
1 66917U 25285C   26064.33665346 -.00000102  00000+0  48086-4 0  9998
2 66917  50.0022 158.5110 0000046 347.1437  12.9434 13.29330895 12245
HULIANWANG DIGUI-108    
1 66918U 25285D   26064.47865033 -.00000084  00000+0  86952-4 0  9992
2 66918  50.0044 157.9452 0000018 314.9470  45.1400 13.29331360 12261
HULIANWANG DIGUI-109    
1 66919U 25285E   26064.62065663 -.00000069  00000+0  11873-3 0  9993
2 66919  50.0067 157.3825 0000055 341.0521  19.0349 13.29331111 12293
HULIANWANG DIGUI-110    
1 66920U 25285F   26064.31159157 -.00000096  00000+0  60998-4 0  9996
2 66920  50.0100 158.4435 0000015  44.2896 315.7978 13.29330931 12243
HULIANWANG DIGUI-111    
1 66921U 25285G   26064.60395404 -.00000080  00000+0  95760-4 0  9994
2 66921  50.0115 157.3349 0000035 310.7286  49.3584 13.29330580 12285
HULIANWANG DIGUI-112    
1 66922U 25285H   26064.59560126 -.00000050  00000+0  16021-3 0  9997
2 66922  50.0079 157.2639 0000067 306.9368  53.1498 13.29331085 12287
